{
  "type": "FeatureCollection",
  "features": [
    {
      "type": "Feature",
      "properties": {
        "norad_id": 34540,
        "name": "IRIDIUM 33 DEB",
        "group": "iridium-33-debris",
        "lat": -23.990870891912355,
        "lon": -55.20664978852721,
        "alt_km": 661.2969553260227,
        "timestamp": "2025-12-15T07:02:38.000195+00:00",
        "meta_object_name": "IRIDIUM 33 DEB",
        "meta_object_id": "1997-051JH",
        "meta_epoch": "2025-12-14T21:37:43.057056",
        "meta_mean_motion": 14.75375098,
        "meta_eccentricity": 0.00167778,
        "meta_inclination": 86.3098,
        "meta_ra_of_asc_node": 306.6186,
        "meta_arg_of_pericenter": 151.5752,
        "meta_mean_anomaly": 262.2222,
        "meta_ephemeris_type": 0,
        "meta_classification_type": "U",
        "meta_norad_cat_id": 34540,
        "meta_element_set_no": 999,
        "meta_rev_at_epoch": 89053,
        "meta_bstar": 0.0010616231,
        "meta_mean_motion_dot": 7.243e-05,
        "meta_mean_motion_ddot": 0,
        "tle_line1": "1 34540U 97051JH  25348.90119279  .00007243  00000+0  10616-2 0  9999",
        "tle_line2": "2 34540  86.3098 306.6186 0016777 151.5752 262.2222 14.75375098890538"
      },
      "geometry": {
        "type": "Point",
        "coordinates": [
          -55.20664978852721,
          -23.990870891912355
        ]
      }
    },
    {
      "type": "Feature",
      "properties": {
        "norad_id": 34648,
        "name": "IRIDIUM 33 DEB",
        "group": "iridium-33-debris",
        "lat": -75.5289061260669,
        "lon": 115.07707227202869,
        "alt_km": 752.6077389396805,
        "timestamp": "2025-12-15T07:02:38.000206+00:00",
        "meta_object_name": "IRIDIUM 33 DEB",
        "meta_object_id": "1997-051JZ",
        "meta_epoch": "2025-12-14T19:36:45.364608",
        "meta_mean_motion": 14.11575958,
        "meta_eccentricity": 0.01821398,
        "meta_inclination": 86.3893,
        "meta_ra_of_asc_node": 281.1076,
        "meta_arg_of_pericenter": 292.3959,
        "meta_mean_anomaly": 65.8015,
        "meta_ephemeris_type": 0,
        "meta_classification_type": "U",
        "meta_norad_cat_id": 34648,
        "meta_element_set_no": 999,
        "meta_rev_at_epoch": 84990,
        "meta_bstar": 0.0057033227,
        "meta_mean_motion_dot": 0.00012129,
        "meta_mean_motion_ddot": 0,
        "tle_line1": "1 34648U 97051JZ  25348.81719172  .00012129  00000+0  57033-2 0  9999",
        "tle_line2": "2 34648  86.3893 281.1076 0182139 292.3959  65.8015 14.11575958849903"
      },
      "geometry": {
        "type": "Point",
        "coordinates": [
          115.07707227202869,
          -75.5289061260669
        ]
      }
    },
    {
      "type": "Feature",
      "properties": {
        "norad_id": 34651,
        "name": "IRIDIUM 33 DEB",
        "group": "iridium-33-debris",
        "lat": 83.38148889015461,
        "lon": 173.5693390250037,
        "alt_km": 834.0259003149977,
        "timestamp": "2025-12-15T07:02:38.000217+00:00",
        "meta_object_name": "IRIDIUM 33 DEB",
        "meta_object_id": "1997-051KC",
        "meta_epoch": "2025-12-14T20:32:02.678784",
        "meta_mean_motion": 14.25858999,
        "meta_eccentricity": 0.01421805,
        "meta_inclination": 86.2825,
        "meta_ra_of_asc_node": 139.6773,
        "meta_arg_of_pericenter": 197.246,
        "meta_mean_anomaly": 162.3876,
        "meta_ephemeris_type": 0,
        "meta_classification_type": "U",
        "meta_norad_cat_id": 34651,
        "meta_element_set_no": 999,
        "meta_rev_at_epoch": 85926,
        "meta_bstar": 0.0023063549,
        "meta_mean_motion_dot": 6.121e-05,
        "meta_mean_motion_ddot": 0,
        "tle_line1": "1 34651U 97051KC  25348.85558656  .00006121  00000+0  23064-2 0  9997",
        "tle_line2": "2 34651  86.2825 139.6773 0142180 197.2460 162.3876 14.25858999859266"
      },
      "geometry": {
        "type": "Point",
        "coordinates": [
          173.5693390250037,
          83.38148889015461
        ]
      }
    },
    {
      "type": "Feature",
      "properties": {
        "norad_id": 34652,
        "name": "IRIDIUM 33 DEB",
        "group": "iridium-33-debris",
        "lat": 69.90634790632215,
        "lon": 148.7632708391378,
        "alt_km": 697.958412733502,
        "timestamp": "2025-12-15T07:02:38.000227+00:00",
        "meta_object_name": "IRIDIUM 33 DEB",
        "meta_object_id": "1997-051KD",
        "meta_epoch": "2025-12-14T22:27:55.876032",
        "meta_mean_motion": 14.62082992,
        "meta_eccentricity": 0.00257478,
        "meta_inclination": 86.3312,
        "meta_ra_of_asc_node": 339.0239,
        "meta_arg_of_pericenter": 290.2679,
        "meta_mean_anomaly": 99.3424,
        "meta_ephemeris_type": 0,
        "meta_classification_type": "U",
        "meta_norad_cat_id": 34652,
        "meta_element_set_no": 999,
        "meta_rev_at_epoch": 88516,
        "meta_bstar": 0.00068733857,
        "meta_mean_motion_dot": 3.489e-05,
        "meta_mean_motion_ddot": 0,
        "tle_line1": "1 34652U 97051KD  25348.93606338  .00003489  00000+0  68734-3 0  9996",
        "tle_line2": "2 34652  86.3312 339.0239 0025747 290.2679  99.3424 14.62082992885166"
      },
      "geometry": {
        "type": "Point",
        "coordinates": [
          148.7632708391378,
          69.90634790632215
        ]
      }
    },
    {
      "type": "Feature",
      "properties": {
        "norad_id": 34690,
        "name": "IRIDIUM 33 DEB",
        "group": "iridium-33-debris",
        "lat": -86.06751117861441,
        "lon": -77.00455360987803,
        "alt_km": 719.3701699046678,
        "timestamp": "2025-12-15T07:02:38.000237+00:00",
        "meta_object_name": "IRIDIUM 33 DEB",
        "meta_object_id": "1997-051KM",
        "meta_epoch": "2025-12-14T22:22:43.760352",
        "meta_mean_motion": 14.55104553,
        "meta_eccentricity": 0.00105916,
        "meta_inclination": 86.3786,
        "meta_ra_of_asc_node": 36.0386,
        "meta_arg_of_pericenter": 22.3695,
        "meta_mean_anomaly": 156.1415,
        "meta_ephemeris_type": 0,
        "meta_classification_type": "U",
        "meta_norad_cat_id": 34690,
        "meta_element_set_no": 999,
        "meta_rev_at_epoch": 88126,
        "meta_bstar": 0.00037009207,
        "meta_mean_motion_dot": 1.618e-05,
        "meta_mean_motion_ddot": 0,
        "tle_line1": "1 34690U 97051KM  25348.93245093  .00001618  00000+0  37009-3 0  9998",
        "tle_line2": "2 34690  86.3786  36.0386 0010591  22.3695 156.1415 14.55104553881262"
      },
      "geometry": {
        "type": "Point",
        "coordinates": [
          -77.00455360987803,
          -86.06751117861441
        ]
      }
    },
    {
      "type": "Feature",
      "properties": {
        "norad_id": 34693,
        "name": "IRIDIUM 33 DEB",
        "group": "iridium-33-debris",
        "lat": -86.04877297631688,
        "lon": -168.0697370994242,
        "alt_km": 494.5225931551804,
        "timestamp": "2025-12-15T07:02:38.000248+00:00",
        "meta_object_name": "IRIDIUM 33 DEB",
        "meta_object_id": "1997-051KQ",
        "meta_epoch": "2025-12-14T22:17:58.586784",
        "meta_mean_motion": 15.28524353,
        "meta_eccentricity": 0.00134534,
        "meta_inclination": 86.3039,
        "meta_ra_of_asc_node": 302.737,
        "meta_arg_of_pericenter": 49.5329,
        "meta_mean_anomaly": 15.6361,
        "meta_ephemeris_type": 0,
        "meta_classification_type": "U",
        "meta_norad_cat_id": 34693,
        "meta_element_set_no": 999,
        "meta_rev_at_epoch": 88948,
        "meta_bstar": 0.0028514504,
        "meta_mean_motion_dot": 0.00080044,
        "meta_mean_motion_ddot": 0,
        "tle_line1": "1 34693U 97051KQ  25348.92915031  .00080044  00000+0  28515-2 0  9997",
        "tle_line2": "2 34693  86.3039 302.7370 0013453  49.5329  15.6361 15.28524353889483"
      },
      "geometry": {
        "type": "Point",
        "coordinates": [
          -168.0697370994242,
          -86.04877297631688
        ]
      }
    },
    {
      "type": "Feature",
      "properties": {
        "norad_id": 34696,
        "name": "IRIDIUM 33 DEB",
        "group": "iridium-33-debris",
        "lat": 40.39976396934922,
        "lon": -156.92075609691938,
        "alt_km": 623.967515400037,
        "timestamp": "2025-12-15T07:02:38.000258+00:00",
        "meta_object_name": "IRIDIUM 33 DEB",
        "meta_object_id": "1997-051KT",
        "meta_epoch": "2025-12-14T21:07:54.379200",
        "meta_mean_motion": 14.65232108,
        "meta_eccentricity": 0.00739537,
        "meta_inclination": 86.1853,
        "meta_ra_of_asc_node": 26.5266,
        "meta_arg_of_pericenter": 160.2166,
        "meta_mean_anomaly": 322.3396,
        "meta_ephemeris_type": 0,
        "meta_classification_type": "U",
        "meta_norad_cat_id": 34696,
        "meta_element_set_no": 999,
        "meta_rev_at_epoch": 86704,
        "meta_bstar": 0.0028727685,
        "meta_mean_motion_dot": 0.0001615,
        "meta_mean_motion_ddot": 0,
        "tle_line1": "1 34696U 97051KT  25348.88049050  .00016150  00000+0  28728-2 0  9997",
        "tle_line2": "2 34696  86.1853  26.5266 0073953 160.2166 322.3396 14.65232108867042"
      },
      "geometry": {
        "type": "Point",
        "coordinates": [
          -156.92075609691938,
          40.39976396934922
        ]
      }
    }
  ]
}